{
    "links": {
        "self": "http://www.neowsapp.com/rest/v1/neo/3558281?api_key=iIulBulltgU6a56xZRHN4H3l9WmuAYTsLGpBGhQ2"
    },
    "id": "3558281",
    "neo_reference_id": "3558281",
    "name": "(2011 EV4)",
    "designation": "2011 EV4",
    "nasa_jpl_url": "http://ssd.jpl.nasa.gov/sbdb.cgi?sstr=3558281",
    "absolute_magnitude_h": 26.6,
    "estimated_diameter": {
        "kilometers": {
            "estimated_diameter_min": 0.0127219879,
            "estimated_diameter_max": 0.0284472297
        },
        "meters": {
            "estimated_diameter_min": 12.7219878539,
            "estimated_diameter_max": 28.4472296503
        },
        "miles": {
            "estimated_diameter_min": 0.0079050743,
            "estimated_diameter_max": 0.0176762835
        },
        "feet": {
            "estimated_diameter_min": 41.7388066307,
            "estimated_diameter_max": 93.330808926
        }
    },
    "is_potentially_hazardous_asteroid": false,
    "close_approach_data": [
        {
            "close_approach_date": "2011-03-04",
            "close_approach_date_full": "2011-Mar-04 12:57",
            "epoch_date_close_approach": 1299243420000,
            "relative_velocity": {
                "kilometers_per_second": "8.3033816918",
                "kilometers_per_hour": "29892.1740905843",
                "miles_per_hour": "18573.8345064522"
            },
            "miss_distance": {
                "astronomical": "0.0440420083",
                "lunar": "17.1323412287",
                "kilometers": "6588590.632202321",
                "miles": "4093960.3793851898"
            },
            "orbiting_body": "Earth"
        }
    ],
    "orbital_data": {
        "orbit_id": "5",
        "orbit_determination_date": "2017-04-06 08:54:18",
        "first_observation_date": "2011-03-02",
        "last_observation_date": "2011-03-03",
        "data_arc_in_days": 1,
        "observations_used": 16,
        "orbit_uncertainty": "9",
        "minimum_orbit_intersection": ".0428683",
        "jupiter_tisserand_invariant": "3.602",
        "epoch_osculation": "2455623.5",
        "eccentricity": ".4976044270066157",
        "semi_major_axis": "2.057256086197162",
        "inclination": "10.36487429031183",
        "ascending_node_longitude": "161.989429535232",
        "orbital_period": "1077.782085400439",
        "perihelion_distance": "1.03355635021915",
        "perihelion_argument": "356.810645971019",
        "aphelion_distance": "3.080955822175173",
        "perihelion_time": "2455621.454357936078",
        "mean_anomaly": ".6832838966128358",
        "mean_motion": ".3340192835606891",
        "equinox": "J2000",
        "orbit_class": {
            "orbit_class_type": "AMO",
            "orbit_class_description": "Near-Earth asteroid orbits similar to that of 1221 Amor",
            "orbit_class_range": "1.017 AU < q (perihelion) < 1.3 AU"
        }
    },
    "is_sentry_object": false
}